#dP2018 10 26  0  0  0.00000000      96 __u+U ITR00 FIT  IAC
## 2024 432000.00000000   900.00000000 58417 0.0000000000000
+   92   C01C02C03C04C05C06C07C08C09C10C11C12C13C14E01E02E03
+        E04E05E07E08E09E11E12E14E18E19E21E24E25E26E27E30E31
+        G01G02G03G05G06G07G08G09G10G11G12G13G14G15G16G17G18
+        G19G20G21G22G23G24G25G26G27G28G29G30G31G32J01J02J03
+        J07R01R02R03R04R05R07R08R09R10R11R13R14R15R16R17R18
+        R19R20R21R22R23R24R26  0  0  0  0  0  0  0  0  0  0
++        12 12 12 12 12  9  9  9  8  8  7  8  0  8  6  7  7
++         6  7  6  6  6  7  6  6  7  6  6  6  7  6  6  7  7
++         3  3  3  3  3  3  3  3  3  3  3  3  3  3  3  3  3
++         3  3  3  3  3  3  3  3  3  3  3  3  3  3  0  9 11
++        15  5  5  5  5  5  5  5  5  5  5  5  5  5  5  6  5
++         5  5  5  5  5  6  8  0  0  0  0  0  0  0  0  0  0
%c M  cc GPS ccc cccc cccc cccc cccc ccccc ccccc ccccc ccccc
%c cc cc ccc ccc cccc cccc cccc cccc ccccc ccccc ccccc ccccc
%f  0.0000000  0.000000000  0.00000000000  0.000000000000000
%f  0.0000000  0.000000000  0.00000000000  0.000000000000000
%i    0    0    0    0      0      0      0      0         0
%i    0    0    0    0      0      0      0      0         0
/* INFORMATION & ANALYSIS CENTER (IAC) OF MCC   (RAPID DATA)
/* S/V CLOCKS ARE ALIGNED TO GPS & GLONASS TIME RESPECTIVELY
/* USING THE BROADCAST EPHEMERIS                            
/* PCV:IGS14_2022 OL/AL:FES2004  NONE     YN ORB:CoN CLK:CoN
*  2018 10 26 14 30  0.00000000
PC01 -32269.755930  27165.087347    400.041041   -192.895094
PC02   4340.937335  41917.019411   -944.262731    -53.685695
PC03 -14783.220179  39455.588466    -33.640763   -208.031488
PC04 -39659.174382  14409.169261    115.413656     78.770739
PC05  21946.643163  35973.843067  -1095.135497    194.405416
PC06 -19657.557251  37038.440033  -1633.929629    416.330978
PC07  -7902.796626  28437.238361  30385.071949   -112.327534
PC08 -22686.293108  19962.823512 -29467.075074     10.887200
PC09  -8488.653374  38245.120227  15346.801042    231.071197
PC10   5425.726933  35539.178974  22484.219090   -185.840067
PC11 -20520.124996  18286.263586  -5017.010429    -13.027944
PC12 -23878.831972   6250.516621  13175.138634    173.385138
PC13      0.000000      0.000000      0.000000 999999.999999
PC14 -10773.981833  18429.741403 -17894.424140    688.055832
PE01  19583.359298   -647.682197 -22180.397577   -464.384931
PE02 -19560.352565    703.111912  22213.566739     32.677913
PE03 -18256.489883  12107.071329 -19915.912520    -92.620957
PE04  11209.663735 -27015.445047   4548.257800   -145.662869
PE05 -14643.961883  -9996.607099 -23703.864988    170.327764
PE07   2476.765246  26174.942162  13611.506096    -63.689979
PE08 -10913.912078  27148.516144  -4521.783608   6475.356489
PE09  -2627.418759 -26120.441120 -13657.532310   6636.430599
PE11  -6226.548474 -15339.865228  24531.225219   5700.997335
PE12  16041.352843 -16817.004236  18337.162555   5358.003322
PE14  13769.801593  15418.478645 -25001.399992   6498.937251
PE18  -7067.177058 -13864.197315  17760.942813   5803.721451
PE19  18239.708847 -10113.549915  21005.216816    -11.126496
PE21  23165.043895  16860.956482  -7448.987885   -501.384380
PE24 -13261.313107 -24155.467871 -10825.088563   6421.754594
PE25 -23161.608485 -16855.881249   7450.277151   2001.945711
PE26  24210.976976   5129.095914 -16227.427070   5320.677454
PE27  12884.187444  24073.975895  11447.594577    603.261407
PE30  -4497.791035  17583.064338  23383.059994   5401.536671
PE31   4928.224396 -17158.287973 -23594.083422    999.918991
PG01  16910.023929  13458.312788 -15807.092483   -105.600115
PG02   5707.516702 -15015.718670  21704.310024    -40.967516
PG03  13618.646717  21853.414812   6618.254412    153.435364
PG05  -1228.932165 -23810.874882  11364.814033     -0.654100
PG06  20491.040581  -7511.210591  15181.921762    343.709213
PG07  25929.236264   6294.157061   2880.250492     99.852801
PG08  -1251.831571  20444.736046 -16769.974142   -119.959439
PG09  16058.242620   3416.925049  20839.716574    497.596971
PG10 -14484.713862   4642.735434 -21736.884364    170.998578
PG11  11521.676505  13257.656890 -20430.715311   -706.238428
PG12  -9743.866992 -24660.980326   2551.908958    296.902425
PG13   9688.599029 -21501.906517 -12306.282355    -86.125524
PG14 -18694.215771  18643.373099  -1495.319833    -96.400747
PG15  -4407.020812 -18565.604416 -18556.169642   -341.863400
PG16  -2132.746386  22754.399134  13004.546346      2.231412
PG17  20520.841793 -12640.953868 -10621.177272    -39.374363
PG18   7156.076160  15609.035375 -20777.565857     72.474239
PG19  19352.904273 -18215.792055  -1901.213430   -389.858716
PG20 -18453.203365  -4995.482431 -18606.122096    517.837404
PG21 -26372.881418  -2780.813628    465.454292   -314.929072
PG22  10721.598248  24292.983211   -933.161552   -557.258364
PG23  10307.670205  12167.090559  21504.707040   -207.782325
PG24 -12714.794995 -14720.959312 -18343.046571    -57.314393
PG25 -16126.757773 -16510.479646  13168.815562   -667.483574
PG26  -8227.583272  16029.062448  19462.380549     20.828494
PG27 -10378.742221  22710.912581  -8733.203277     -9.871698
PG28  14569.136173  -1251.784153 -21545.089365    751.625964
PG29 -14500.702498  -5289.317854  21592.216699    349.159357
PG30  25317.658067  -1120.400292  -8218.069883      4.568521
PG31 -18985.291323   8518.123787  16777.945486     84.069318
PG32 -19976.709309  14359.629928  -9846.923676   -379.768762
PJ01      0.000000      0.000000      0.000000 999999.999999
PJ02 -26651.597902  20540.019765  30102.296165      0.386289
PJ03 -32981.662458  25883.215705   9097.167777      0.463351
PJ07 -25381.101805  33674.181436     25.415124 999999.999999
PR01  -1482.336806 -24525.217024  -6831.026409     34.031671
PR02  -9277.093264 -10150.555162 -21463.564965    336.421989
PR03 -10917.182898   9290.001739 -21054.487456    147.049116
PR04  -5877.864250  23503.147313  -7947.022905    281.389031
PR05   2176.093180  23765.482651   8983.662179     14.025239
PR07  10899.499306  -9812.969343  20908.371717    -50.193734
PR08   6251.947123 -23170.586141   8697.822674     20.767032
PR09  21652.982938  12744.898908  -4591.958274     35.431364
PR10  17368.989726   1937.244804 -18629.453242     34.270379
PR11   2783.641566 -11359.324648 -22642.046488    -45.108582
PR13 -21719.425278 -12780.180606   3910.520417    -16.114514
PR14 -17465.156939  -1636.362695  18530.757342     32.369110
PR15  -6921.436689   8201.911750  23156.759103    -18.318588
PR16  12683.028515  16911.027723  14180.669560    104.850398
PR17 -23634.710975   8903.746376   3747.286655    175.336726
PR18 -16798.274262  14133.374880 -12933.625206     26.596931
PR19   -996.253513  11569.642778 -22713.602598    -61.006331
PR20  17119.753954   1846.670318 -18830.081596   -356.918953
PR21  23570.081511  -9137.185937  -3276.883834    -11.022189
PR22  15199.181622 -14230.779022  14821.942622    -64.870030
PR23  -3844.212757  -9794.717406  23228.187596    186.758210
PR24 -18025.165742   -771.828778  18004.043878   -173.028460
PR26  15961.430343   2537.398820 -19712.417412     26.268049
EOF
